OBJECT_NAME,OBJECT_ID,EPOCH,MEAN_MOTION,ECCENTRICITY,INCLINATION,RA_OF_ASC_NODE,ARG_OF_PERICENTER,MEAN_ANOMALY,EPHEMERIS_TYPE,CLASSIFICATION_TYPE,NORAD_CAT_ID,ELEMENT_SET_NO,REV_AT_EPOCH,BSTAR,MEAN_MOTION_DOT,MEAN_MOTION_DDOT
QIANFAN-163,2026-121A,2026-06-07T22:57:09.243936,13.60351284,.00192,89.0167,301.4498,214.2671,145.7248,0,U,69325,999,90,.25988E-4,.32E-6,0
QIANFAN-164,2026-121B,2026-06-10T07:25:06.566592,13.60505036,.00188347,89.0161,301.2111,208.3519,151.6614,0,U,69326,999,122,.14696918E-3,.123E-5,0
SZ-22 MODULE,2025-272C,2026-06-10T06:17:25.464192,15.59941190,.0007176,41.4816,4.1998,28.6099,331.5133,0,U,69328,999,224,.23903E-3,.19567E-3,0
STARLINK-37733,2026-122A,2026-06-10T14:00:01.999872,15.89182751,.00011884,97.2846,190.6276,75.9820,274.5226,0,U,69329,999,229,-.62427735E-2,-.1538806E-1,0
STARLINK-37772,2026-122B,2026-06-10T14:00:01.999872,15.89867771,.00011089,97.2852,190.6336,91.3437,273.0975,0,U,69330,999,224,-.43057173E-2,-.1266104E-1,.45641365E-3
STARLINK-37768,2026-122C,2026-06-10T14:00:01.999872,15.90151495,.00011018,97.2853,190.6355,92.7930,276.0690,0,U,69331,999,224,-.42489184E-2,-.1267319E-1,.45849234E-3
STARLINK-37833,2026-122D,2026-06-10T14:00:01.999872,15.90469311,.00010802,97.2852,190.6374,89.2976,283.9061,0,U,69332,999,224,-.41819843E-2,-.1267486E-1,.46003442E-3
STARLINK-37818,2026-122E,2026-06-10T14:00:01.999872,15.90786695,.00011756,97.2857,190.6379,71.6645,302.3011,0,U,69333,999,229,-.7823208E-2,-.2392782E-1,.15142196E-2
STARLINK-37868,2026-122F,2026-06-10T14:00:01.999872,15.90986086,.00010608,97.2857,190.6393,91.8872,286.0448,0,U,69334,999,229,-.4073395E-2,-.1267295E-1,.46225204E-3
STARLINK-37877,2026-122G,2026-06-10T14:00:01.999872,15.90974439,.00010315,97.2857,190.6396,92.9343,285.8715,0,U,69335,999,229,-.40621748E-2,-.1263092E-1,.45936517E-3
STARLINK-37791,2026-122H,2026-06-10T14:00:01.999872,15.91062598,.00012473,97.2858,190.6416,90.6515,292.3337,0,U,69336,999,229,-.75831026E-2,-.235241E-1,.14697219E-2
STARLINK-37765,2026-122J,2026-06-10T14:00:01.999872,15.91511892,.00011807,97.2860,190.6445,93.0589,296.9302,0,U,69337,999,234,-.74358663E-2,-.2360051E-1,.14860912E-2
STARLINK-37788,2026-122K,2026-06-10T14:00:01.999872,15.91877537,.00009725,97.2864,190.6463,94.7303,299.6731,0,U,69338,999,229,-.2120883E-2,-.693328E-2,.1517903E-3
STARLINK-37743,2026-122L,2026-06-10T14:00:01.999872,15.91872981,.00009288,97.2864,190.6466,96.5446,299.0768,0,U,69339,999,229,-.21000719E-2,-.686392E-2,.14895364E-3
STARLINK-37780,2026-122M,2026-06-10T14:00:01.999872,15.91824020,.0000943,97.2865,190.6480,97.4947,300.9820,0,U,69340,999,234,-.38675222E-2,-.1255877E-1,.45837079E-3
STARLINK-37781,2026-122N,2026-06-10T14:00:01.999872,15.92444836,.00012548,97.2864,190.6484,78.9802,320.0819,0,U,69341,999,229,-.62801397E-2,-.2093574E-1,.11940298E-2
STARLINK-37782,2026-122P,2026-06-10T14:00:01.999872,15.92584167,.00010572,97.2864,190.6513,90.7618,315.5676,0,U,69342,999,229,-.37014888E-2,-.1249988E-1,.45788188E-3
STARLINK-37776,2026-122Q,2026-06-10T14:00:01.999872,15.92745172,.00010928,97.2864,190.6524,85.6987,323.5633,0,U,69343,999,229,-.3684527E-2,-.125463E-1,.46178525E-3
STARLINK-37786,2026-122R,2026-06-10T14:00:01.999872,15.93185091,.00010644,97.2869,190.6554,85.6651,330.8201,0,U,69344,999,229,-.35738982E-2,-.124516E-1,.45739013E-3
STARLINK-37785,2026-122S,2026-06-10T14:00:01.999872,15.93167571,.00010198,97.2866,190.6556,88.5870,328.7645,0,U,69345,999,229,-.35529598E-2,-.1236808E-1,.45164691E-3
STARLINK-37773,2026-122T,2026-06-10T14:00:01.999872,15.93318319,.00010497,97.2868,190.6571,84.7964,335.4372,0,U,69346,999,234,-.32067861E-2,-.1126036E-1,.38019143E-3
STARLINK-37744,2026-122U,2026-06-10T14:00:01.999872,15.93535463,.00010344,97.2868,190.6586,85.0720,339.0112,0,U,69347,999,229,-.32278926E-2,-.1146196E-1,.39377367E-3
STARLINK-37775,2026-122V,2026-06-10T14:00:01.999872,15.93746904,.00009748,97.2870,190.6606,103.9864,323.6822,0,U,69348,999,229,-.65631866E-2,-.2338518E-1,.14963896E-2
STARLINK-37777,2026-122W,2026-06-10T14:00:01.999872,15.93686805,.00009627,97.2870,190.6615,111.6002,318.9057,0,U,69349,999,229,-.34575152E-2,-.1236643E-1,.45392951E-3
