0 QIANFAN-163
1 69325U 26121A   26158.95635699  .00000032  00000-0  25988-4 0  9992
2 69325  89.0167 301.4498 0019200 214.2671 145.7248 13.60351284   905
0 QIANFAN-164
1 69326U 26121B   26161.30910378  .00000123  00000-0  14697-3 0  9991
2 69326  89.0161 301.2111 0018835 208.3519 151.6614 13.60505036  1223
0 SZ-22 MODULE
1 69328U 25272C   26161.26210028  .00019567  00000-0  23903-3 0  9991
2 69328  41.4816   4.1998 0007176  28.6099 331.5133 15.59941190  2241
0 STARLINK-37733
1 69329U 26122A   26161.58335648 -.01538806  00000-0 -62428-2 0  9997
2 69329  97.2846 190.6276 0001188  75.9820 274.5226 15.89182751  2295
0 STARLINK-37772
1 69330U 26122B   26161.58335648 -.01266104  45641-3 -43057-2 0  9998
2 69330  97.2852 190.6336 0001109  91.3437 273.0975 15.89867771  2242
0 STARLINK-37768
1 69331U 26122C   26161.58335648 -.01267319  45849-3 -42489-2 0  9996
2 69331  97.2853 190.6355 0001102  92.7930 276.0690 15.90151495  2249
0 STARLINK-37833
1 69332U 26122D   26161.58335648 -.01267486  46003-3 -41820-2 0  9993
2 69332  97.2852 190.6374 0001080  89.2976 283.9061 15.90469311  2244
0 STARLINK-37818
1 69333U 26122E   26161.58335648 -.02392782  15142-2 -78232-2 0  9999
2 69333  97.2857 190.6379 0001176  71.6645 302.3011 15.90786695  2292
0 STARLINK-37868
1 69334U 26122F   26161.58335648 -.01267295  46225-3 -40734-2 0  9992
2 69334  97.2857 190.6393 0001061  91.8872 286.0448 15.90986086  2296
0 STARLINK-37877
1 69335U 26122G   26161.58335648 -.01263092  45937-3 -40622-2 0  9999
2 69335  97.2857 190.6396 0001032  92.9343 285.8715 15.90974439  2296
0 STARLINK-37791
1 69336U 26122H   26161.58335648 -.02352410  14697-2 -75831-2 0  9992
2 69336  97.2858 190.6416 0001247  90.6515 292.3337 15.91062598  2293
0 STARLINK-37765
1 69337U 26122J   26161.58335648 -.02360051  14861-2 -74359-2 0  9990
2 69337  97.2860 190.6445 0001181  93.0589 296.9302 15.91511892  2348
0 STARLINK-37788
1 69338U 26122K   26161.58335648 -.00693328  15179-3 -21209-2 0  9995
2 69338  97.2864 190.6463 0000972  94.7303 299.6731 15.91877537  2293
0 STARLINK-37743
1 69339U 26122L   26161.58335648 -.00686392  14895-3 -21001-2 0  9993
2 69339  97.2864 190.6466 0000929  96.5446 299.0768 15.91872981  2299
0 STARLINK-37780
1 69340U 26122M   26161.58335648 -.01255877  45837-3 -38675-2 0  9991
2 69340  97.2865 190.6480 0000943  97.4947 300.9820 15.91824020  2348
0 STARLINK-37781
1 69341U 26122N   26161.58335648 -.02093574  11940-2 -62801-2 0  9992
2 69341  97.2864 190.6484 0001255  78.9802 320.0819 15.92444836  2292
0 STARLINK-37782
1 69342U 26122P   26161.58335648 -.01249988  45788-3 -37015-2 0  9991
2 69342  97.2864 190.6513 0001057  90.7618 315.5676 15.92584167  2295
0 STARLINK-37776
1 69343U 26122Q   26161.58335648 -.01254630  46179-3 -36845-2 0  9997
2 69343  97.2864 190.6524 0001093  85.6987 323.5633 15.92745172  2297
0 STARLINK-37786
1 69344U 26122R   26161.58335648 -.01245160  45739-3 -35739-2 0  9998
2 69344  97.2869 190.6554 0001064  85.6651 330.8201 15.93185091  2293
0 STARLINK-37785
1 69345U 26122S   26161.58335648 -.01236808  45165-3 -35530-2 0  9990
2 69345  97.2866 190.6556 0001020  88.5870 328.7645 15.93167571  2291
0 STARLINK-37773
1 69346U 26122T   26161.58335648 -.01126036  38019-3 -32068-2 0  9995
2 69346  97.2868 190.6571 0001050  84.7964 335.4372 15.93318319  2342
0 STARLINK-37744
1 69347U 26122U   26161.58335648 -.01146196  39377-3 -32279-2 0  9997
2 69347  97.2868 190.6586 0001034  85.0720 339.0112 15.93535463  2292
0 STARLINK-37775
1 69348U 26122V   26161.58335648 -.02338518  14964-2 -65632-2 0  9993
2 69348  97.2870 190.6606 0000975 103.9864 323.6822 15.93746904  2292
0 STARLINK-37777
1 69349U 26122W   26161.58335648 -.01236643  45393-3 -34575-2 0  9992
2 69349  97.2870 190.6615 0000963 111.6002 318.9057 15.93686805  2290
